*******************************************************************************
Ephemeris / WWW_USER Mon Mar 24 09:29:20 2025 Pasadena, USA      / Horizons    
*******************************************************************************
Target body name: (2018 PL28)                     {source: JPL#6}
Center body name: Earth (399)                     {source: DE441}
Center-site name: Mauna Kea
*******************************************************************************
Start time      : A.D. 2019-Jan-08 04:08:00.0000 UT      
Stop  time      : A.D. 2019-Jan-08 16:48:00.0000 UT      
Step-size       : 1 minutes
*******************************************************************************
Target pole/equ : undefined
Target radii    : undefined                                                    
Center geodetic : 204.5278, 19.8260847, 4.21024   {E-lon(deg),Lat(deg),Alt(km)}
Center cylindric: 204.5278, 6006.35451, 2151.0229 {E-lon(deg),Dxy(km),Dz(km)}
Center pole/equ : ITRF93                          {East-longitude positive}
Center radii    : 6378.137, 6378.137, 6356.752 km {Equator_a, b, pole_c}       
Target primary  : Sun
Vis. interferer : MOON (R_eq= 1737.400) km        {source: DE441}
Rel. light bend : Sun                             {source: DE441}
Rel. lght bnd GM: 1.3271E+11 km^3/s^2                                          
Small-body perts: Yes                             {source: SB441-N16}
Atmos refraction: NO (AIRLESS)
RA format       : HMS
Time format     : CAL 
Calendar mode   : Mixed Julian/Gregorian
RTS-only print  : NO       
EOP file        : eop.250321.p250617                                           
EOP coverage    : DATA-BASED 1962-JAN-20 TO 2025-MAR-21. PREDICTS-> 2025-JUN-16
Units conversion: 1 au= 149597870.700 km, c= 299792.458 km/s, 1 day= 86400.0 s 
Table cut-offs 1: Elevation (-90.0deg=NO ),Airmass (>38.000=NO), Daylight (YES)
Table cut-offs 2: Solar elongation (  0.0,180.0=NO ),Local Hour Angle( 0.0=NO )
Table cut-offs 3: RA/DEC angular rate (     0.0=NO )                           
*******************************************************************************
Initial IAU76/J2000 heliocentric ecliptic osculating elements (au, days, deg.):
  EPOCH=  2457854.5 ! 2017-Apr-11.00 (TDB)         Residual RMS= .19092        
   EC= .8623380004677549   QR= 2.686075926237564   TP= 2457951.5509793968      
   OM= 350.7805373480467   W=  275.0956674869335   IN= 74.19591911353062       
  Equivalent ICRF heliocentric cartesian coordinates (au, au/d):
   X=-1.230595634603956E+00  Y= 5.216934222523280E-01  Z=-2.512561684350396E+00
  VX= 1.337943797263742E-02 VY=-1.672601025687851E-03 VZ=-3.313586071138778E-03
Asteroid physical parameters (km, seconds, rotational period in hours):        
   GM= n.a.                RAD= n.a.               ROTPER= n.a.                
   H= 14.87                G= .150                 B-V= n.a.                   
                           ALBEDO= n.a.            STYP= n.a.                  
*******************************************************************************
 Date__(UT)__HR:MN     R.A._________(ICRF)_________DEC
******************************************************
$$SOE
 2019-Jan-08 16:26 N   22 49 47.124587 +02 42 35.95867
 2019-Jan-08 16:27 N   22 49 47.140369 +02 42 36.17407
 2019-Jan-08 16:28 N   22 49 47.156149 +02 42 36.38947
 2019-Jan-08 16:29 N   22 49 47.171929 +02 42 36.60487
 2019-Jan-08 16:30 N   22 49 47.187708 +02 42 36.82028
 2019-Jan-08 16:31 N   22 49 47.203486 +02 42 37.03569
 2019-Jan-08 16:32 N   22 49 47.219262 +02 42 37.25110
 2019-Jan-08 16:33 N   22 49 47.235038 +02 42 37.46651
 2019-Jan-08 16:34 N   22 49 47.250814 +02 42 37.68192
 2019-Jan-08 16:35 C   22 49 47.266588 +02 42 37.89733
 2019-Jan-08 16:36 C   22 49 47.282361 +02 42 38.11275
 2019-Jan-08 16:37 C   22 49 47.298133 +02 42 38.32817
 2019-Jan-08 16:38 C   22 49 47.313905 +02 42 38.54359
 2019-Jan-08 16:39 C   22 49 47.329675 +02 42 38.75902
 2019-Jan-08 16:40 C   22 49 47.345444 +02 42 38.97444
 2019-Jan-08 16:41 C   22 49 47.361213 +02 42 39.18987
 2019-Jan-08 16:42 C   22 49 47.376980 +02 42 39.40530
 2019-Jan-08 16:43 C   22 49 47.392747 +02 42 39.62073
 2019-Jan-08 16:44 C   22 49 47.408512 +02 42 39.83616
 2019-Jan-08 16:45 C   22 49 47.424277 +02 42 40.05160
 2019-Jan-08 16:46 C   22 49 47.440040 +02 42 40.26704
 2019-Jan-08 16:47 C   22 49 47.455803 +02 42 40.48248
 2019-Jan-08 16:48 C   22 49 47.471564 +02 42 40.69792
